NORAD_CAT_ID,OBJECT_NAME,OBJECT_TYPE,EPOCH,MEAN_MOTION,ECCENTRICITY,INCLINATION,RA_OF_ASC_NODE,ARG_OF_PERICENTER,MEAN_ANOMALY,BSTAR,MEAN_MOTION_DOT,MEAN_MOTION_DDOT,TLE_LINE0,TLE_LINE1,TLE_LINE2,SEMIMAJOR_AXIS,PERIOD,APOGEE,PERIGEE,DECAYED
54809.0,STARLINK-5414,PAYLOAD,2024-07-08 12:45:10,15.08843912,0.000141,53.2165,243.293,81.7413,278.3739,0.00016295,2.307e-05,0.0,0 STARLINK-5414,1 54809U 22175BD  24190.53136871  .00002307  00000-0  16295-3 0  9991,2 54809  53.2165 243.2930 0001410  81.7413 278.3739 15.08843912 86018,6917.868,95.437,540.709,538.758,0.0
54809.0,STARLINK-5414,PAYLOAD,2024-07-08 20:42:06,15.08840792,0.0001411,53.2167,241.8063,81.3999,278.7153,0.00012166,1.649e-05,0.0,0 STARLINK-5414,1 54809U 22175BD  24190.86257235  .00001649  00000-0  12166-3 0  9996,2 54809  53.2167 241.8063 0001411  81.3999 278.7153 15.08840792 88229,6917.878,95.438,540.719,538.767,0.0
54809.0,STARLINK-5414,PAYLOAD,2024-07-09 11:00:34,15.08842082,0.0001431,53.2159,239.1288,86.3646,273.7509,6.1971e-05,6.99e-06,0.0,0 STARLINK-5414,1 54809U 22175BD  24191.45873299  .00000699  00000-0  61971-4 0  9999,2 54809  53.2159 239.1288 0001431  86.3646 273.7509 15.08842082 86159,6917.874,95.437,540.729,538.749,0.0
54809.0,STARLINK-5414,PAYLOAD,2024-07-10 12:26:44,15.08838502,0.0001323,53.2158,234.3721,90.3527,269.7617,2.7931e-05,1.57e-06,0.0,0 STARLINK-5414,1 54809U 22175BD  24192.51857614  .00000157  00000-0  27931-4 0  9997,2 54809  53.2158 234.3721 0001323  90.3527 269.7617 15.08838502 86315,6917.885,95.438,540.665,538.835,0.0
54809.0,STARLINK-5414,PAYLOAD,2024-07-11 12:17:31,15.08844951,0.0001473,53.2164,229.9111,90.9464,269.1697,9.5558e-05,1.233e-05,0.0,0 STARLINK-5414,1 54809U 22175BD  24193.51216966  .00001233  00000-0  95558-4 0  9993,2 54809  53.2164 229.9111 0001473  90.9464 269.1697 15.08844951 88620,6917.865,95.437,540.749,538.711,0.0
54809.0,STARLINK-5414,PAYLOAD,2024-07-12 08:57:32,15.08837961,0.0001486,53.2166,226.0459,92.3283,267.7879,5.2876e-05,5.54e-06,0.0,0 STARLINK-5414,1 54809U 22175BD  24194.37329687  .00000554  00000-0  52876-4 0  9994,2 54809  53.2166 226.0459 0001486  92.3283 267.7879 15.08837961 86597,6917.887,95.438,540.78,538.724,0.0
54809.0,STARLINK-5414,PAYLOAD,2024-07-13 08:48:19,15.08843972,0.0001305,53.2151,221.5843,88.0895,272.0246,2.2314e-05,6.7e-07,0.0,0 STARLINK-5414,1 54809U 22175BD  24195.36689426  .00000067  00000-0  22314-4 0  9997,2 54809  53.2151 221.5843 0001305  88.0895 272.0246 15.08843972 88902,6917.868,95.437,540.636,538.83,0.0
54809.0,STARLINK-5414,PAYLOAD,2024-07-13 18:20:38,15.0883861,0.0001289,53.2154,219.8017,89.7807,270.3332,3.8897e-05,3.31e-06,0.0,0 STARLINK-5414,1 54809U 22175BD  24195.76433744  .00000331  00000-0  38897-4 0  9998,2 54809  53.2154 219.8017 0001289  89.7807 270.3332 15.08838610 86807,6917.885,95.438,540.641,538.858,0.0
54809.0,STARLINK-5414,PAYLOAD,2024-07-14 08:39:07,15.08834792,0.000135,53.2163,217.1262,91.5656,268.5491,2.4839e-05,1.07e-06,0.0,0 STARLINK-5414,1 54809U 22175BD  24196.36050247  .00000107  00000-0  24839-4 0  9990,2 54809  53.2163 217.1262 0001350  91.5656 268.5491 15.08834792 89054,6917.896,95.438,540.695,538.827,0.0
54809.0,STARLINK-5414,PAYLOAD,2024-07-14 18:11:26,15.0883642,0.0001338,53.2163,215.342,90.7695,269.345,3.559e-05,2.79e-06,0.0,0 STARLINK-5414,1 54809U 22175BD  24196.75794226  .00000279  00000-0  35590-4 0  9991,2 54809  53.2163 215.3420 0001338  90.7695 269.3450 15.08836420 89111,6917.891,95.438,540.682,538.831,0.0
54809.0,STARLINK-5414,PAYLOAD,2024-07-15 10:05:17,15.08841814,0.0001317,53.216,212.3681,91.501,268.6133,6.4291e-05,7.35e-06,0.0,0 STARLINK-5414,1 54809U 22175BD  24197.42033900  .00000735  00000-0  64291-4 0  9998,2 54809  53.2160 212.3681 0001317  91.5010 268.6133 15.08841814 87055,6917.875,95.437,540.651,538.829,0.0
54809.0,STARLINK-5414,PAYLOAD,2024-07-15 18:02:13,15.08840222,0.0001313,53.2161,210.8811,89.9493,270.165,5.2781e-05,5.52e-06,0.0,0 STARLINK-5414,1 54809U 22175BD  24197.75154081  .00000552  00000-0  52781-4 0  9996,2 54809  53.2161 210.8811 0001313  89.9493 270.1650 15.08840222 89265,6917.88,95.438,540.653,538.836,0.0
54809.0,STARLINK-5414,PAYLOAD,2024-07-16 09:56:04,15.08840577,0.0001266,53.2157,207.9063,86.5261,273.5876,8.8518e-05,1.121e-05,0.0,0 STARLINK-5414,1 54809U 22175BD  24198.41393993  .00001121  00000-0  88518-4 0  9997,2 54809  53.2157 207.9063 0001266  86.5261 273.5876 15.08840577 89360,6917.879,95.438,540.619,538.868,0.0
54809.0,STARLINK-5414,PAYLOAD,2024-07-17 05:00:42,15.08834586,0.0001367,53.2163,204.3368,85.8212,274.2936,1.073e-05,-1.17e-06,0.0,0 STARLINK-5414,1 54809U 22175BD  24199.20882809 -.00000117  00000-0  10730-4 0  9990,2 54809  53.2163 204.3368 0001367  85.8212 274.2936 15.08834586 87328,6917.897,95.438,540.708,538.816,0.0
54809.0,STARLINK-5414,PAYLOAD,2024-07-17 09:46:52,15.08837377,0.0001309,53.216,203.4446,87.0318,273.0824,9.056e-06,-1.44e-06,0.0,0 STARLINK-5414,1 54809U 22175BD  24199.40754637 -.00000144  00000-0  90560-5 0  9999,2 54809  53.2160 203.4446 0001309  87.0318 273.0824 15.08837377 89516,6917.888,95.438,540.659,538.848,0.0
54809.0,STARLINK-5414,PAYLOAD,2024-07-18 06:26:52,15.08842596,0.0001325,53.2159,199.5795,86.8159,273.2984,6.3269e-05,7.19e-06,0.0,0 STARLINK-5414,1 54809U 22175BD  24200.26866306  .00000719  00000-0  63269-4 0  9995,2 54809  53.2159 199.5795 0001325  86.8159 273.2984 15.08842596 89646,6917.872,95.437,540.654,538.821,0.0
54809.0,STARLINK-5414,PAYLOAD,2024-07-18 17:34:34,15.08841959,0.0001332,53.2159,197.4981,86.2304,273.884,0.00010119,1.323e-05,0.0,0 STARLINK-5414,1 54809U 22175BD  24200.73234247  .00001323  00000-0  10119-3 0  9997,2 54809  53.2159 197.4981 0001332  86.2304 273.8840 15.08841959 89711,6917.874,95.437,540.661,538.818,0.0
54809.0,STARLINK-5414,PAYLOAD,2024-07-19 06:17:39,15.08843742,0.0001345,53.2164,195.1188,89.811,270.3036,0.00011524,1.547e-05,0.0,0 STARLINK-5414,1 54809U 22175BD  24201.26226132  .00001547  00000-0  11524-3 0  9999,2 54809  53.2164 195.1188 0001345  89.8110 270.3036 15.08843742 87639,6917.869,95.437,540.664,538.803,0.0
54809.0,STARLINK-5414,PAYLOAD,2024-07-20 09:19:12,15.08844099,0.000129,53.2164,190.0639,89.2026,270.9114,3.8953e-05,3.32e-06,0.0,0 STARLINK-5414,1 54809U 22175BD  24202.38834126  .00000332  00000-0  38953-4 0  9998,2 54809  53.2164 190.0639 0001290  89.2026 270.9114 15.08844099 87801,6917.868,95.437,540.625,538.84,0.0
54809.0,STARLINK-5414,PAYLOAD,2024-07-20 15:40:45,15.08839959,0.0001339,53.2167,188.8734,90.9334,269.1812,1.2782e-05,-8.4e-07,0.0,0 STARLINK-5414,1 54809U 22175BD  24202.65330471 -.00000084  00000-0  12782-4 0  9999,2 54809  53.2167 188.8734 0001339  90.9334 269.1812 15.08839959 90000,6917.881,95.438,540.672,538.819,0.0
54809.0,STARLINK-5414,PAYLOAD,2024-07-21 04:23:51,15.088358,0.0001437,53.2173,186.4958,95.5809,264.5347,-9.732e-06,-4.43e-06,0.0,0 STARLINK-5414,1 54809U 22175BD  24203.18322998 -.00000443  00000-0 -97320-5 0  9995,2 54809  53.2173 186.4958 0001437  95.5809 264.5347 15.08835800 87926,6917.893,95.438,540.752,538.764,0.0
54809.0,STARLINK-5414,PAYLOAD,2024-07-21 05:59:14,15.08837646,0.0001337,53.2169,186.2001,89.4853,270.6292,3.0331e-06,-2.4e-06,0.0,0 STARLINK-5414,1 54809U 22175BD  24203.24946877 -.00000240  00000-0  30331-5 0  9993,2 54809  53.2169 186.2001 0001337  89.4853 270.6292 15.08837646 90097,6917.888,95.438,540.678,538.828,0.0
54809.0,STARLINK-5414,PAYLOAD,2024-07-22 07:25:23,15.08844334,0.0001329,53.2164,181.4427,93.5627,266.5518,0.00010433,1.373e-05,0.0,0 STARLINK-5414,1 54809U 22175BD  24204.30930270  .00001373  00000-0  10433-3 0  9997,2 54809  53.2164 181.4427 0001329  93.5627 266.5518 15.08844334 88091,6917.867,95.437,540.652,538.813,0.0
54809.0,STARLINK-5414,PAYLOAD,2024-07-23 04:05:25,15.08837993,0.0001438,53.2173,177.5774,93.1627,266.953,7.9148e-05,9.72e-06,0.0,0 STARLINK-5414,1 54809U 22175BD  24205.17042972  .00000972  00000-0  79148-4 0  9999,2 54809  53.2173 177.5774 0001438  93.1627 266.9530 15.08837993 88225,6917.887,95.438,540.746,538.757,0.0
54809.0,STARLINK-5414,PAYLOAD,2024-07-24 03:56:13,15.08832543,0.0001815,53.2173,173.1109,64.4042,295.7138,-2.7636e-05,-7.28e-06,0.0,0 STARLINK-5414,1 54809U 22175BD  24206.16404228 -.00000728  00000-0 -27636-4 0  9991,2 54809  53.2173 173.1109 0001815  64.4042 295.7138 15.08832543 88376,6917.903,95.438,541.024,538.513,0.0
54809.0,STARLINK-5414,PAYLOAD,2024-07-24 05:31:36,15.08832855,0.0001824,53.2178,172.8145,68.955,291.1637,-2.4858e-05,-6.84e-06,0.0,0 STARLINK-5414,1 54809U 22175BD  24206.23028230 -.00000684  00000-0 -24858-4 0  9998,2 54809  53.2178 172.8145 0001824  68.9550 291.1637 15.08832855 90542,6917.902,95.438,541.029,538.505,0.0
54809.0,STARLINK-5414,PAYLOAD,2024-07-24 21:25:27,15.08839318,0.0001459,53.2165,169.8411,93.8029,266.313,1.7954e-05,-2e-08,0.0,0 STARLINK-5414,1 54809U 22175BD  24206.89267776 -.00000002  00000-0  17954-4 0  9992,2 54809  53.2165 169.8411 0001459  93.8029 266.3130 15.08839318 88485,6917.882,95.438,540.757,538.738,0.0
54809.0,STARLINK-5414,PAYLOAD,2024-07-25 03:46:59,15.08846697,0.0001477,53.216,168.6555,85.7977,274.3184,9.0569e-05,1.154e-05,0.0,0 STARLINK-5414,1 54809U 22175BD  24207.15763125  .00001154  00000-0  90569-4 0  9992,2 54809  53.2160 168.6555 0001477  85.7977 274.3184 15.08846697 88529,6917.86,95.437,540.747,538.703,0.0
54809.0,STARLINK-5414,PAYLOAD,2024-07-25 21:16:15,15.08824516,0.0001524,53.2164,165.382,104.7623,255.3538,-1.7745e-05,-5.7e-06,0.0,0 STARLINK-5414,1 54809U 22175BD  24207.88629285 -.00000570  00000-0 -17745-4 0  9998,2 54809  53.2164 165.3820 0001524 104.7623 255.3538 15.08824516 88635,6917.928,95.439,540.847,538.738,0.0
54809.0,STARLINK-5414,PAYLOAD,2024-07-26 06:48:34,15.08827273,0.0001504,53.2161,163.5941,109.3947,250.7207,1.7881e-05,-3e-08,0.0,0 STARLINK-5414,1 54809U 22175BD  24208.28373383 -.00000003  00000-0  17881-4 0  9999,2 54809  53.2161 163.5941 0001504 109.3947 250.7207 15.08827273 90856,6917.919,95.438,540.825,538.744,0.0
